{"type": "FeatureCollection", "features": [ {"type": "Feature", "properties": {"norad_id": 66333, "name": "STARLINK-35400", "group": "last-30-days", "lat": -4.057531500677508, "lon": -133.90156777210214, "alt_km": 414.5971943323275, "timestamp": "2025-12-02T23:34:14.289244+00:00", "meta": {"OBJECT_NAME": "STARLINK-35400", "OBJECT_ID": "2025-253Q", "EPOCH": "2025-12-02T05:46:06.661632", "MEAN_MOTION": 15.50632789, "ECCENTRICITY": 0.0001606, "INCLINATION": 43.0007, "RA_OF_ASC_NODE": 46.0732, "ARG_OF_PERICENTER": 261.218, "MEAN_ANOMALY": 98.8498, "EPHEMERIS_TYPE": 0, "CLASSIFICATION_TYPE": "U", "NORAD_CAT_ID": 66333, "ELEMENT_SET_NO": 999, "REV_AT_EPOCH": 530, "BSTAR": 0.0015089, "MEAN_MOTION_DOT": 0.00089367, "MEAN_MOTION_DDOT": 0}, "tle": {"line1": "1 66333U 25253Q   25336.24035488  .00089367  00000+0  15089-2 0  9998", "line2": "2 66333  43.0007  46.0732 0001606 261.2180  98.8498 15.50632789  5302"}}, "geometry": {"type": "Point", "coordinates": [-133.90156777210214, -4.057531500677508]}}, {"type": "Feature", "properties": {"norad_id": 66334, "name": "STARLINK-35407", "group": "last-30-days", "lat": 0.6665137677511715, "lon": -138.9633303144835, "alt_km": 414.2576892547895, "timestamp": "2025-12-02T23:34:14.289255+00:00", "meta": {"OBJECT_NAME": "STARLINK-35407", "OBJECT_ID": "2025-253R", "EPOCH": "2025-12-02T05:47:54.704832", "MEAN_MOTION": 15.50606846, "ECCENTRICITY": 0.000182, "INCLINATION": 43.0002, "RA_OF_ASC_NODE": 46.0853, "ARG_OF_PERICENTER": 277.7851, "MEAN_ANOMALY": 82.2803, "EPHEMERIS_TYPE": 0, "CLASSIFICATION_TYPE": "U", "NORAD_CAT_ID": 66334, "ELEMENT_SET_NO": 999, "REV_AT_EPOCH": 530, "BSTAR": 0.0026112, "MEAN_MOTION_DOT": 0.00156096, "MEAN_MOTION_DDOT": 0}, "tle": {"line1": "1 66334U 25253R   25336.24160538  .00156096  00000+0  26112-2 0  9997", "line2": "2 66334  43.0002  46.0853 0001820 277.7851  82.2803 15.50606846  5309"}}, "geometry": {"type": "Point", "coordinates": [-138.9633303144835, 0.6665137677511715]}}, {"type": "Feature", "properties": {"norad_id": 66335, "name": "STARLINK-35417", "group": "last-30-days", "lat": 36.2728737516023, "lon": 93.99318576207726, "alt_km": 438.9982227096107, "timestamp": "2025-12-02T23:34:14.289265+00:00", "meta": {"OBJECT_NAME": "STARLINK-35417", "OBJECT_ID": "2025-253S", "EPOCH": "2025-12-02T12:00:05.998752", "MEAN_MOTION": 15.40644808, "ECCENTRICITY": 0.0001277, "INCLINATION": 43.0008, "RA_OF_ASC_NODE": 44.8201, "ARG_OF_PERICENTER": 271.575, "MEAN_ANOMALY": 351.8921, "EPHEMERIS_TYPE": 0, "CLASSIFICATION_TYPE": "U", "NORAD_CAT_ID": 66335, "ELEMENT_SET_NO": 999, "REV_AT_EPOCH": 528, "BSTAR": 0.0012096, "MEAN_MOTION_DOT": 0.00050466, "MEAN_MOTION_DDOT": 0}, "tle": {"line1": "1 66335U 25253S   25336.50006943  .00050466  00000+0  12096-2 0  9996", "line2": "2 66335  43.0008  44.8201 0001277 271.5750 351.8921 15.40644808  5287"}}, "geometry": {"type": "Point", "coordinates": [93.99318576207726, 36.2728737516023]}}, {"type": "Feature", "properties": {"norad_id": 66336, "name": "STARLINK-35404", "group": "last-30-days", "lat": -6.775973708057485, "lon": -130.9507367221355, "alt_km": 414.4648228502474, "timestamp": "2025-12-02T23:34:14.289275+00:00", "meta": {"OBJECT_NAME": "STARLINK-35404", "OBJECT_ID": "2025-253T", "EPOCH": "2025-12-02T05:45:07.240032", "MEAN_MOTION": 15.50663874, "ECCENTRICITY": 0.0001575, "INCLINATION": 42.9999, "RA_OF_ASC_NODE": 46.0686, "ARG_OF_PERICENTER": 253.9948, "MEAN_ANOMALY": 106.0739, "EPHEMERIS_TYPE": 0, "CLASSIFICATION_TYPE": "U", "NORAD_CAT_ID": 66336, "ELEMENT_SET_NO": 999, "REV_AT_EPOCH": 530, "BSTAR": 0.0021834, "MEAN_MOTION_DOT": 0.00130295, "MEAN_MOTION_DDOT": 0}, "tle": {"line1": "1 66336U 25253T   25336.23966713  .00130295  00000+0  21834-2 0  9996", "line2": "2 66336  42.9999  46.0686 0001575 253.9948 106.0739 15.50663874  5305"}}, "geometry": {"type": "Point", "coordinates": [-130.9507367221355, -6.775973708057485]}}, {"type": "Feature", "properties": {"norad_id": 66337, "name": "STARLINK-34783", "group": "last-30-days", "lat": 42.785244204445334, "lon": 125.29226105631943, "alt_km": 438.09071815288917, "timestamp": "2025-12-02T23:34:14.289285+00:00", "meta": {"OBJECT_NAME": "STARLINK-34783", "OBJECT_ID": "2025-253U", "EPOCH": "2025-12-02T12:00:05.998752", "MEAN_MOTION": 15.40612881, "ECCENTRICITY": 0.0001185, "INCLINATION": 43.0007, "RA_OF_ASC_NODE": 44.7603, "ARG_OF_PERICENTER": 270.9097, "MEAN_ANOMALY": 17.4567, "EPHEMERIS_TYPE": 0, "CLASSIFICATION_TYPE": "U", "NORAD_CAT_ID": 66337, "ELEMENT_SET_NO": 999, "REV_AT_EPOCH": 533, "BSTAR": 0.0017637, "MEAN_MOTION_DOT": 0.00073872, "MEAN_MOTION_DDOT": 0}, "tle": {"line1": "1 66337U 25253U   25336.50006943  .00073872  00000+0  17637-2 0  9990", "line2": "2 66337  43.0007  44.7603 0001185 270.9097  17.4567 15.40612881  5331"}}, "geometry": {"type": "Point", "coordinates": [125.29226105631943, 42.785244204445334]}}, {"type": "Feature", "properties": {"norad_id": 66338, "name": "STARLINK-35477", "group": "last-30-days", "lat": 30.298169659224634, "lon": 80.90411032522668, "alt_km": 439.65345622201676, "timestamp": "2025-12-02T23:34:14.289296+00:00", "meta": {"OBJECT_NAME": "STARLINK-35477", "OBJECT_ID": "2025-253V", "EPOCH": "2025-12-02T12:00:05.998752", "MEAN_MOTION": 15.40639376, "ECCENTRICITY": 6.62e-05, "INCLINATION": 43.0005, "RA_OF_ASC_NODE": 44.8511, "ARG_OF_PERICENTER": 254.3783, "MEAN_ANOMALY": 356.6465, "EPHEMERIS_TYPE": 0, "CLASSIFICATION_TYPE": "U", "NORAD_CAT_ID": 66338, "ELEMENT_SET_NO": 999, "REV_AT_EPOCH": 538, "BSTAR": 0.0011431, "MEAN_MOTION_DOT": 0.00047647, "MEAN_MOTION_DDOT": 0}, "tle": {"line1": "1 66338U 25253V   25336.50006943  .00047647  00000+0  11431-2 0  9998", "line2": "2 66338  43.0005  44.8511 0000662 254.3783 356.6465 15.40639376  5384"}}, "geometry": {"type": "Point", "coordinates": [80.90411032522668, 30.298169659224634]}}, {"type": "Feature", "properties": {"norad_id": 66339, "name": "STARLINK-35443", "group": "last-30-days", "lat": -6.849438649089673, "lon": -130.8672608199434, "alt_km": 432.0283566071503, "timestamp": "2025-12-02T23:34:14.289307+00:00", "meta": {"OBJECT_NAME": "STARLINK-35443", "OBJECT_ID": "2025-253W", "EPOCH": "2025-12-02T12:00:05.998752", "MEAN_MOTION": 15.47063659, "ECCENTRICITY": 0.0001398, "INCLINATION": 43.0005, "RA_OF_ASC_NODE": 44.5274, "ARG_OF_PERICENTER": 274.1341, "MEAN_ANOMALY": 109.8171, "EPHEMERIS_TYPE": 0, "CLASSIFICATION_TYPE": "U", "NORAD_CAT_ID": 66339, "ELEMENT_SET_NO": 999, "REV_AT_EPOCH": 533, "BSTAR": -0.043461, "MEAN_MOTION_DOT": -0.02009422, "MEAN_MOTION_DDOT": 0}, "tle": {"line1": "1 66339U 25253W   25336.50006943 -.02009422  00000+0 -43461-1 0  9999", "line2": "2 66339  43.0005  44.5274 0001398 274.1341 109.8171 15.47063659  5334"}}, "geometry": {"type": "Point", "coordinates": [-130.8672608199434, -6.849438649089673]}}, {"type": "Feature", "properties": {"norad_id": 66340, "name": "STARLINK-35218", "group": "last-30-days", "lat": -8.054389948126229, "lon": -129.54640738334044, "alt_km": 414.6485321830505, "timestamp": "2025-12-02T23:34:14.289317+00:00", "meta": {"OBJECT_NAME": "STARLINK-35218", "OBJECT_ID": "2025-253X", "EPOCH": "2025-12-02T05:44:37.704192", "MEAN_MOTION": 15.50658934, "ECCENTRICITY": 0.0001723, "INCLINATION": 43.0002, "RA_OF_ASC_NODE": 46.0659, "ARG_OF_PERICENTER": 259.1035, "MEAN_ANOMALY": 100.9632, "EPHEMERIS_TYPE": 0, "CLASSIFICATION_TYPE": "U", "NORAD_CAT_ID": 66340, "ELEMENT_SET_NO": 999, "REV_AT_EPOCH": 530, "BSTAR": 0.0021881, "MEAN_MOTION_DOT": 0.00130561, "MEAN_MOTION_DDOT": 0}, "tle": {"line1": "1 66340U 25253X   25336.23932528  .00130561  00000+0  21881-2 0  9996", "line2": "2 66340  43.0002  46.0659 0001723 259.1035 100.9632 15.50658934  5303"}}, "geometry": {"type": "Point", "coordinates": [-129.54640738334044, -8.054389948126229]}}, {"type": "Feature", "properties": {"norad_id": 66341, "name": "STARLINK-35522", "group": "last-30-days", "lat": -2.7629745612064003, "lon": -135.29086417991655, "alt_km": 414.4945487611376, "timestamp": "2025-12-02T23:34:14.289330+00:00", "meta": {"OBJECT_NAME": "STARLINK-35522", "OBJECT_ID": "2025-253Y", "EPOCH": "2025-12-02T05:46:36.245856", "MEAN_MOTION": 15.50639914, "ECCENTRICITY": 0.0001588, "INCLINATION": 43.0002, "RA_OF_ASC_NODE": 46.079, "ARG_OF_PERICENTER": 262.4563, "MEAN_ANOMALY": 97.6117, "EPHEMERIS_TYPE": 0, "CLASSIFICATION_TYPE": "U", "NORAD_CAT_ID": 66341, "ELEMENT_SET_NO": 999, "REV_AT_EPOCH": 530, "BSTAR": 0.0014366, "MEAN_MOTION_DOT": 0.00085041, "MEAN_MOTION_DDOT": 0}, "tle": {"line1": "1 66341U 25253Y   25336.24069729  .00085041  00000+0  14366-2 0  9994", "line2": "2 66341  43.0002  46.0790 0001588 262.4563  97.6117 15.50639914  5309"}}, "geometry": {"type": "Point", "coordinates": [-135.29086417991655, -2.7629745612064003]}}, {"type": "Feature", "properties": {"norad_id": 66342, "name": "STARLINK-35535", "group": "last-30-days", "lat": 21.570745438861767, "lon": -163.27362852248936, "alt_km": 441.2813807546181, "timestamp": "2025-12-02T23:34:14.289342+00:00", "meta": {"OBJECT_NAME": "STARLINK-35535", "OBJECT_ID": "2025-253Z", "EPOCH": "2025-12-02T12:00:05.998752", "MEAN_MOTION": 15.4064157, "ECCENTRICITY": 0.0001245, "INCLINATION": 43.0005, "RA_OF_ASC_NODE": 44.6073, "ARG_OF_PERICENTER": 280.9981, "MEAN_ANOMALY": 69.5447, "EPHEMERIS_TYPE": 0, "CLASSIFICATION_TYPE": "U", "NORAD_CAT_ID": 66342, "ELEMENT_SET_NO": 999, "REV_AT_EPOCH": 528, "BSTAR": 0.0011762, "MEAN_MOTION_DOT": 0.0004905, "MEAN_MOTION_DDOT": 0}, "tle": {"line1": "1 66342U 25253Z   25336.50006943  .00049050  00000+0  11762-2 0  9990", "line2": "2 66342  43.0005  44.6073 0001245 280.9981  69.5447 15.40641570  5281"}}, "geometry": {"type": "Point", "coordinates": [-163.27362852248936, 21.570745438861767]}}]}